{"type": "FeatureCollection", "features": [ {"type": "Feature", "properties": {"norad_id": 33619, "name": "FENGYUN 1C DEB", "group": "fengyun-1c-debris", "lat": -59.762339191086284, "lon": 63.26692961147061, "alt_km": 865.7543342826884, "timestamp": "2025-12-04T07:39:36.421111+00:00", "meta": {"OBJECT_NAME": "FENGYUN 1C DEB", "OBJECT_ID": "1999-025DDC", "EPOCH": "2025-11-30T03:59:31.835616", "MEAN_MOTION": 14.17406202, "ECCENTRICITY": 0.00518202, "INCLINATION": 98.8627, "RA_OF_ASC_NODE": 43.6004, "ARG_OF_PERICENTER": 82.3406, "MEAN_ANOMALY": 278.3649, "EPHEMERIS_TYPE": 0, "CLASSIFICATION_TYPE": "U", "NORAD_CAT_ID": 33619, "ELEMENT_SET_NO": 999, "REV_AT_EPOCH": 63446, "BSTAR": 0.0015187763, "MEAN_MOTION_DOT": 3.073e-05, "MEAN_MOTION_DDOT": 0}, "tle": {"line1": "1 33619U 99025DDC 25334.16634069  .00003073  00000+0  15188-2 0  9996", "line2": "2 33619  98.8627  43.6004 0051820  82.3406 278.3649 14.17406202634469"}}, "geometry": {"type": "Point", "coordinates": [63.26692961147061, -59.762339191086284]}}, {"type": "Feature", "properties": {"norad_id": 33621, "name": "FENGYUN 1C DEB", "group": "fengyun-1c-debris", "lat": 32.58316671280903, "lon": 14.985780957171112, "alt_km": 1029.1766202568515, "timestamp": "2025-12-04T07:39:36.421120+00:00", "meta": {"OBJECT_NAME": "FENGYUN 1C DEB", "OBJECT_ID": "1999-025DDE", "EPOCH": "2025-11-24T20:15:43.256160", "MEAN_MOTION": 14.19392117, "ECCENTRICITY": 0.0285764, "INCLINATION": 98.141, "RA_OF_ASC_NODE": 181.012, "ARG_OF_PERICENTER": 346.9455, "MEAN_ANOMALY": 12.4433, "EPHEMERIS_TYPE": 0, "CLASSIFICATION_TYPE": "U", "NORAD_CAT_ID": 33621, "ELEMENT_SET_NO": 999, "REV_AT_EPOCH": 63990, "BSTAR": 0.00068783, "MEAN_MOTION_DOT": 2.13e-05, "MEAN_MOTION_DDOT": 0}, "tle": {"line1": "1 33621U 99025DDE 25328.84425065  .00002130  00000+0  68783-3 0  9994", "line2": "2 33621  98.1410 181.0120 0285764 346.9455  12.4433 14.19392117639903"}}, "geometry": {"type": "Point", "coordinates": [14.985780957171112, 32.58316671280903]}}, {"type": "Feature", "properties": {"norad_id": 33625, "name": "FENGYUN 1C DEB", "group": "fengyun-1c-debris", "lat": -36.6894005809948, "lon": -97.8696399972368, "alt_km": 604.9665583940532, "timestamp": "2025-12-04T07:39:36.421129+00:00", "meta": {"OBJECT_NAME": "FENGYUN 1C DEB", "OBJECT_ID": "1999-025DDJ", "EPOCH": "2025-12-01T01:24:31.444992", "MEAN_MOTION": 14.60592393, "ECCENTRICITY": 0.02269611, "INCLINATION": 98.6203, "RA_OF_ASC_NODE": 85.2252, "ARG_OF_PERICENTER": 171.2387, "MEAN_ANOMALY": 189.288, "EPHEMERIS_TYPE": 0, "CLASSIFICATION_TYPE": "U", "NORAD_CAT_ID": 33625, "ELEMENT_SET_NO": 999, "REV_AT_EPOCH": 61220, "BSTAR": 0.0017865562, "MEAN_MOTION_DOT": 0.00012473, "MEAN_MOTION_DDOT": 0}, "tle": {"line1": "1 33625U 99025DDJ 25335.05869728  .00012473  00000+0  17866-2 0  9993", "line2": "2 33625  98.6203  85.2252 0226961 171.2387 189.2880 14.60592393612207"}}, "geometry": {"type": "Point", "coordinates": [-97.8696399972368, -36.6894005809948]}}, {"type": "Feature", "properties": {"norad_id": 33630, "name": "FENGYUN 1C DEB", "group": "fengyun-1c-debris", "lat": -55.13106645916721, "lon": -107.80693789642585, "alt_km": 918.5099232608791, "timestamp": "2025-12-04T07:39:36.421138+00:00", "meta": {"OBJECT_NAME": "FENGYUN 1C DEB", "OBJECT_ID": "1999-025DDP", "EPOCH": "2025-12-02T00:21:31.303296", "MEAN_MOTION": 14.17690711, "ECCENTRICITY": 0.01353981, "INCLINATION": 98.6162, "RA_OF_ASC_NODE": 82.5253, "ARG_OF_PERICENTER": 98.8286, "MEAN_ANOMALY": 262.8248, "EPHEMERIS_TYPE": 0, "CLASSIFICATION_TYPE": "U", "NORAD_CAT_ID": 33630, "ELEMENT_SET_NO": 999, "REV_AT_EPOCH": 64259, "BSTAR": 0.00047449858, "MEAN_MOTION_DOT": 1.016e-05, "MEAN_MOTION_DDOT": 0}, "tle": {"line1": "1 33630U 99025DDP 25336.01494564  .00001016  00000+0  47450-3 0  9992", "line2": "2 33630  98.6162  82.5253 0135398  98.8286 262.8248 14.17690711642599"}}, "geometry": {"type": "Point", "coordinates": [-107.80693789642585, -55.13106645916721]}}, {"type": "Feature", "properties": {"norad_id": 33633, "name": "FENGYUN 1C DEB", "group": "fengyun-1c-debris", "lat": -50.59032256975201, "lon": -118.79318911360367, "alt_km": 802.8063241089831, "timestamp": "2025-12-04T07:39:36.421147+00:00", "meta": {"OBJECT_NAME": "FENGYUN 1C DEB", "OBJECT_ID": "1999-025DDS", "EPOCH": "2025-11-16T17:57:06.933888", "MEAN_MOTION": 14.18965681, "ECCENTRICITY": 0.00839409, "INCLINATION": 99.0586, "RA_OF_ASC_NODE": 54.4483, "ARG_OF_PERICENTER": 222.9547, "MEAN_ANOMALY": 290.5713, "EPHEMERIS_TYPE": 0, "CLASSIFICATION_TYPE": "U", "NORAD_CAT_ID": 33633, "ELEMENT_SET_NO": 999, "REV_AT_EPOCH": 90342, "BSTAR": 0.003598007, "MEAN_MOTION_DOT": 7.732e-05, "MEAN_MOTION_DDOT": 0}, "tle": {"line1": "1 33633U 99025DDS 25320.74799692  .00007732  00000+0  35980-2 0  9993", "line2": "2 33633  99.0586  54.4483 0083940 222.9547 290.5713 14.18965681903424"}}, "geometry": {"type": "Point", "coordinates": [-118.79318911360367, -50.59032256975201]}}, {"type": "Feature", "properties": {"norad_id": 33637, "name": "FENGYUN 1C DEB", "group": "fengyun-1c-debris", "lat": -55.8023123950713, "lon": 36.119061895576934, "alt_km": 812.131524528817, "timestamp": "2025-12-04T07:39:36.421156+00:00", "meta": {"OBJECT_NAME": "FENGYUN 1C DEB", "OBJECT_ID": "1999-025DDW", "EPOCH": "2025-12-02T20:49:29.953920", "MEAN_MOTION": 14.36621291, "ECCENTRICITY": 0.00830408, "INCLINATION": 98.4948, "RA_OF_ASC_NODE": 21.982, "ARG_OF_PERICENTER": 180.571, "MEAN_ANOMALY": 179.5395, "EPHEMERIS_TYPE": 0, "CLASSIFICATION_TYPE": "U", "NORAD_CAT_ID": 33637, "ELEMENT_SET_NO": 999, "REV_AT_EPOCH": 64696, "BSTAR": 0.0016160218, "MEAN_MOTION_DOT": 4.904e-05, "MEAN_MOTION_DDOT": 0}, "tle": {"line1": "1 33637U 99025DDW 25336.86770780  .00004904  00000+0  16160-2 0  9991", "line2": "2 33637  98.4948  21.9820 0083040 180.5710 179.5395 14.36621291646960"}}, "geometry": {"type": "Point", "coordinates": [36.119061895576934, -55.8023123950713]}}, {"type": "Feature", "properties": {"norad_id": 33638, "name": "FENGYUN 1C DEB", "group": "fengyun-1c-debris", "lat": -43.36547128507998, "lon": -121.89891892448924, "alt_km": 824.4861440988616, "timestamp": "2025-12-04T07:39:36.421166+00:00", "meta": {"OBJECT_NAME": "FENGYUN 1C DEB", "OBJECT_ID": "1999-025DDX", "EPOCH": "2025-12-01T13:13:33.178944", "MEAN_MOTION": 13.69256804, "ECCENTRICITY": 0.02658611, "INCLINATION": 98.4646, "RA_OF_ASC_NODE": 227.5799, "ARG_OF_PERICENTER": 302.8995, "MEAN_ANOMALY": 54.6828, "EPHEMERIS_TYPE": 0, "CLASSIFICATION_TYPE": "U", "NORAD_CAT_ID": 33638, "ELEMENT_SET_NO": 999, "REV_AT_EPOCH": 60762, "BSTAR": 0.0015515248, "MEAN_MOTION_DOT": 1.686e-05, "MEAN_MOTION_DDOT": 0}, "tle": {"line1": "1 33638U 99025DDX 25335.55107846  .00001686  00000+0  15515-2 0  9991", "line2": "2 33638  98.4646 227.5799 0265861 302.8995  54.6828 13.69256804607625"}}, "geometry": {"type": "Point", "coordinates": [-121.89891892448924, -43.36547128507998]}}, {"type": "Feature", "properties": {"norad_id": 33639, "name": "FENGYUN 1C DEB", "group": "fengyun-1c-debris", "lat": -79.50643516074855, "lon": -166.73469114363135, "alt_km": 742.5712499409528, "timestamp": "2025-12-04T07:39:36.421175+00:00", "meta": {"OBJECT_NAME": "FENGYUN 1C DEB", "OBJECT_ID": "1999-025DDY", "EPOCH": "2025-11-29T11:23:00.512736", "MEAN_MOTION": 14.40164015, "ECCENTRICITY": 0.00492272, "INCLINATION": 98.7122, "RA_OF_ASC_NODE": 64.2163, "ARG_OF_PERICENTER": 328.9041, "MEAN_ANOMALY": 30.9235, "EPHEMERIS_TYPE": 0, "CLASSIFICATION_TYPE": "U", "NORAD_CAT_ID": 33639, "ELEMENT_SET_NO": 999, "REV_AT_EPOCH": 60391, "BSTAR": 0.0019761745, "MEAN_MOTION_DOT": 6.293e-05, "MEAN_MOTION_DDOT": 0}, "tle": {"line1": "1 33639U 99025DDY 25333.47431149  .00006293  00000+0  19762-2 0  9994", "line2": "2 33639  98.7122  64.2163 0049227 328.9041  30.9235 14.40164015603915"}}, "geometry": {"type": "Point", "coordinates": [-166.73469114363135, -79.50643516074855]}}, {"type": "Feature", "properties": {"norad_id": 33640, "name": "FENGYUN 1C DEB", "group": "fengyun-1c-debris", "lat": -71.52290118508638, "lon": -51.52441671569785, "alt_km": 758.660149900189, "timestamp": "2025-12-04T07:39:36.421184+00:00", "meta": {"OBJECT_NAME": "FENGYUN 1C DEB", "OBJECT_ID": "1999-025DDZ", "EPOCH": "2025-12-03T07:05:28.612320", "MEAN_MOTION": 14.45839064, "ECCENTRICITY": 0.0090224, "INCLINATION": 98.8397, "RA_OF_ASC_NODE": 279.6527, "ARG_OF_PERICENTER": 187.9822, "MEAN_ANOMALY": 171.9938, "EPHEMERIS_TYPE": 0, "CLASSIFICATION_TYPE": "U", "NORAD_CAT_ID": 33640, "ELEMENT_SET_NO": 999, "REV_AT_EPOCH": 92206, "BSTAR": 0.00071385, "MEAN_MOTION_DOT": 2.614e-05, "MEAN_MOTION_DDOT": 0}, "tle": {"line1": "1 33640U 99025DDZ 25337.29547005  .00002614  00000+0  71385-3 0  9992", "line2": "2 33640  98.8397 279.6527 0090224 187.9822 171.9938 14.45839064922065"}}, "geometry": {"type": "Point", "coordinates": [-51.52441671569785, -71.52290118508638]}}, {"type": "Feature", "properties": {"norad_id": 33648, "name": "FENGYUN 1C DEB", "group": "fengyun-1c-debris", "lat": 16.12496187313925, "lon": 159.785556625977, "alt_km": 813.1168842502775, "timestamp": "2025-12-04T07:39:36.421193+00:00", "meta": {"OBJECT_NAME": "FENGYUN 1C DEB", "OBJECT_ID": "1999-025DEH", "EPOCH": "2025-12-01T19:21:03.618432", "MEAN_MOTION": 14.11767445, "ECCENTRICITY": 0.00683547, "INCLINATION": 98.7193, "RA_OF_ASC_NODE": 334.8003, "ARG_OF_PERICENTER": 205.3153, "MEAN_ANOMALY": 154.4664, "EPHEMERIS_TYPE": 0, "CLASSIFICATION_TYPE": "U", "NORAD_CAT_ID": 33648, "ELEMENT_SET_NO": 999, "REV_AT_EPOCH": 64222, "BSTAR": 0.00013911279, "MEAN_MOTION_DOT": 2.16e-06, "MEAN_MOTION_DDOT": 0}, "tle": {"line1": "1 33648U 99025DEH 25335.80629188  .00000216  00000+0  13911-3 0  9995", "line2": "2 33648  98.7193 334.8003 0068354 205.3153 154.4664 14.11767445642225"}}, "geometry": {"type": "Point", "coordinates": [159.785556625977, 16.12496187313925]}}]}